H1 CPF 01  gfz 2022 07 17 00  6981 tandemx   
H2 1003001  6202 36605    2022 07 17 00 59 42 2022 07 22 00 00 42   120 1 1  0 0 0
H9
10 0 59780  25902.000000  0   -6549761.568   2112945.622    307050.941
10 0 59780  26022.000000  0   -6397153.880   2250086.311   1206085.509
10 0 59780  26142.000000  0   -6130669.296   2344218.517   2083879.359
10 0 59780  26262.000000  0   -5755736.083   2391745.057   2924970.013
10 0 59780  26382.000000  0   -5279753.220   2390003.242   3714546.282
10 0 59780  26502.000000  0   -4711937.418   2337343.315   4438715.351
10 0 59780  26622.000000  0   -4063135.901   2233185.322   5084749.376
10 0 59780  26742.000000  0   -3345611.088   2078053.220   5641308.484
10 0 59780  26862.000000  0   -2572801.282   1873586.117   6098637.871
10 0 59780  26982.000000  0   -1759061.184   1622525.412   6448734.506
10 0 59780  27102.000000  0    -919389.684   1328678.273   6685480.801
10 0 59780  27222.000000  0     -69151.111    996859.041   6804744.059
10 0 59780  27342.000000  0     776205.352    632809.600   6804443.678
10 0 59780  27462.000000  0    1601425.299    243099.957   6684584.993
10 0 59780  27582.000000  0    2391723.020   -164989.539   6447259.416
10 0 59780  27702.000000  0    3133046.089   -583603.430   6096611.484
10 0 59780  27822.000000  0    3812327.335  -1004460.930   5638771.241
10 0 59780  27942.000000  0    4417719.020  -1419018.451   5081752.554
10 0 59780  28062.000000  0    4938804.510  -1818642.116   4435318.732
10 0 59780  28182.000000  0    5366785.467  -2194786.146   3710817.100
10 0 59780  28302.000000  0    5694639.815  -2539174.675   2920982.270
10 0 59780  28422.000000  0    5917244.359  -2843982.383   2079711.417
10 0 59780  28542.000000  0    6031460.679  -3102009.033   1201817.504
10 0 59780  28662.000000  0    6036183.048  -3306844.856    302762.805
10 0 59780  28782.000000  0    5932343.762  -3453020.781   -601621.510
10 0 59780  28902.000000  0    5722878.449  -3536140.850  -1495423.420
10 0 59780  29022.000000  0    5412648.815  -3552991.663  -2362939.200
10 0 59780  29142.000000  0    5008328.433  -3501627.895  -3188955.326
10 0 59780  29262.000000  0    4518253.891  -3381431.704  -3959019.417
10 0 59780  29382.000000  0    3952245.262  -3193144.921  -4659693.360
10 0 59780  29502.000000  0    3321400.811  -2938872.966  -5278784.622
10 0 59780  29622.000000  0    2637872.132  -2622061.139  -5805550.292
10 0 59780  29742.000000  0    1914626.574  -2247446.437  -6230872.932
10 0 59780  29862.000000  0    1165200.016  -1820984.667  -6547409.061
10 0 59780  29982.000000  0     403443.367  -1349752.549  -6749705.484
10 0 59780  30102.000000  0    -356730.199   -841829.744  -6834282.772
10 0 59780  30222.000000  0   -1101593.723   -306162.129  -6799687.759
10 0 59780  30342.000000  0   -1817848.483    247592.175  -6646515.698
10 0 59780  30462.000000  0   -2492855.948    809232.553  -6377400.300
10 0 59780  30582.000000  0   -3114855.690   1368198.653  -5996973.420
10 0 59780  30702.000000  0   -3673167.767   1913764.024  -5511794.624
10 0 59780  30822.000000  0   -4158378.193   2435238.403  -4930250.108
10 0 59780  30942.000000  0   -4562502.702   2922175.927  -4262418.636
10 0 59780  31062.000000  0   -4879124.320   3364583.835  -3519906.614
10 0 59780  31182.000000  0   -5103503.316   3753128.529  -2715655.840
10 0 59780  31302.000000  0   -5232656.202   4079334.777  -1863723.032
10 0 59780  31422.000000  0   -5265401.205   4335771.982   -979036.062
10 0 59780  31542.000000  0   -5202368.946   4516223.597    -77129.936
10 0 59780  31662.000000  0   -5045976.367   4615835.075    826132.002
10 0 59780  31782.000000  0   -4800363.663   4631234.647   1714846.377
10 0 59780  31902.000000  0   -4471295.690   4560623.846   2573359.253
10 0 59780  32022.000000  0   -4066030.290   4403836.645   3386550.268
10 0 59780  32142.000000  0   -3593157.725   4162365.077   4140105.485
10 0 59780  32262.000000  0   -3062416.170   3839350.829   4820773.293
10 0 59780  32382.000000  0   -2484487.269   3439543.588   5416599.277
10 0 59780  32502.000000  0   -1870776.254   2969227.040   5917134.654
10 0 59780  32622.000000  0   -1233182.423   2436114.866   6313615.294
10 0 59780  32742.000000  0    -583865.229   1849218.690   6599108.220
10 0 59780  32862.000000  0      64987.261   1218692.689   6768626.008
10 0 59780  32982.000000  0     701387.096    555655.874   6819209.210
10 0 59780  33102.000000  0    1313767.129   -128003.977   6749974.061
10 0 59780  33222.000000  0    1891190.151   -819842.574   6562127.659
10 0 59780  33342.000000  0    2423543.830  -1507085.218   6258948.540
10 0 59780  33462.000000  0    2901718.766  -2176861.865   5845734.015
10 0 59780  33582.000000  0    3317767.202  -2816449.132   5329712.968
10 0 59780  33702.000000  0    3665038.359  -3413513.778   4719925.297
10 0 59780  33822.000000  0    3938288.985  -3956354.047   4027069.134
10 0 59780  33942.000000  0    4133766.519  -4434133.863   3263316.656
10 0 59780  34062.000000  0    4249262.304  -4837104.677   2442101.487
10 0 59780  34182.000000  0    4284134.160  -5156809.518   1577880.435
10 0 59780  34302.000000  0    4239296.600  -5386263.671    685873.989
10 0 59780  34422.000000  0    4117178.482  -5520106.978   -218208.812
10 0 59780  34542.000000  0    3921651.016  -5554725.096  -1118454.433
10 0 59780  34662.000000  0    3657925.631  -5488336.287  -1999034.764
10 0 59780  34782.000000  0    3332424.933  -5321039.678  -2844492.775
10 0 59780  34902.000000  0    2952631.562  -5054826.100  -3640019.661
10 0 59780  35022.000000  0    2526917.142  -4693550.628  -4371716.706
10 0 59780  35142.000000  0    2064356.777  -4242868.715  -5026836.340
10 0 59780  35262.000000  0    1574535.118  -3710137.515  -5593998.067
10 0 59780  35382.000000  0    1067348.654  -3104287.093  -6063376.571
10 0 59780  35502.000000  0     552806.995  -2435664.842  -6426861.428
10 0 59780  35622.000000  0      40837.357  -1715854.761  -6678186.387
10 0 59780  35742.000000  0    -458903.083   -957475.371  -6813026.730
10 0 59780  35862.000000  0    -937204.102   -173960.396  -6829065.447
10 0 59780  35982.000000  0   -1385467.807    620674.400  -6726027.942
10 0 59780  36102.000000  0   -1795859.660   1412075.239  -6505685.781
10 0 59780  36222.000000  0   -2161442.065   2185803.166  -6171829.388
10 0 59780  36342.000000  0   -2476290.461   2927591.361  -5730210.966
10 0 59780  36462.000000  0   -2735589.881   3623605.535  -5188455.758
10 0 59780  36582.000000  0   -2935710.442   4260702.118  -4555942.389
10 0 59780  36702.000000  0   -3074260.499   4826680.281  -3843650.954
10 0 59780  36822.000000  0   -3150114.524   5310520.771  -3063980.397
10 0 59780  36942.000000  0   -3163415.783   5702606.908  -2230540.359
10 0 59780  37062.000000  0   -3115554.611   5994925.655  -1357917.867
10 0 59780  37182.000000  0   -3009119.474   6181240.299   -461420.506
10 0 59780  37302.000000  0   -2847824.005   6257229.029    443195.006
10 0 59780  37422.000000  0   -2636412.164   6220590.079   1340007.194
10 0 59780  37542.000000  0   -2380538.736   6071103.788   2213221.864
10 0 59780  37662.000000  0   -2086631.056   5810650.300   3047459.548
10 0 59780  37782.000000  0   -1761737.188   5443185.555   3828033.129
10 0 59780  37902.000000  0   -1413363.941   4974676.519   4541211.225
10 0 59780  38022.000000  0   -1049308.073   4412996.645   5174462.561
10 0 59780  38142.000000  0    -677483.908   3767784.294   5716675.301
10 0 59780  38262.000000  0    -305754.399   3050268.973   6158348.580
10 0 59780  38382.000000  0      58232.820   2273067.802   6491753.718
10 0 59780  38502.000000  0     407200.517   1449958.918   6711063.178
10 0 59780  38622.000000  0     734385.813    595633.646   6812447.010
10 0 59780  38742.000000  0    1033669.718   -274566.297   6794134.444
10 0 59780  38862.000000  0    1299690.634  -1144923.156   6656443.895
10 0 59780  38982.000000  0    1527940.331  -1999626.780   6401778.154
10 0 59780  39102.000000  0    1714840.707  -2823061.604   6034585.690
10 0 59780  39222.000000  0    1857800.197  -3600093.736   5561287.660
10 0 59780  39342.000000  0    1955248.604  -4316352.212   4990170.514
10 0 59780  39462.000000  0    2006650.364  -4958498.450   4331246.463
10 0 59780  39582.000000  0    2012496.984  -5514482.249   3596084.015
10 0 59780  39702.000000  0    1974276.472  -5973777.568   2797606.371
10 0 59780  39822.000000  0    1894419.917  -6327590.035   1949863.324
10 0 59780  39942.000000  0    1776229.156  -6569032.836   1067781.554
10 0 59780  40062.000000  0    1623785.130  -6693267.726    166896.712
10 0 59780  40182.000000  0    1441838.989  -6697606.957   -736927.634
10 0 59780  40302.000000  0    1235688.359  -6581571.325  -1627791.045
10 0 59780  40422.000000  0    1011042.018  -6346899.867  -2490044.557
10 0 59780  40542.000000  0     773877.906  -5997516.363  -3308571.600
10 0 59780  40662.000000  0     530299.624  -5539453.038  -4069056.270
10 0 59780  40782.000000  0     286391.856  -4980733.962  -4758233.675
10 0 59780  40902.000000  0      48079.447  -4331221.680  -5364116.662
10 0 59780  41022.000000  0    -179006.217  -3602432.205  -5876196.876
10 0 59780  41142.000000  0    -389650.960  -2807321.822  -6285617.001
10 0 59780  41262.000000  0    -579169.202  -1960051.377  -6585312.555
10 0 59780  41382.000000  0    -743501.342  -1075732.676  -6770122.359
10 0 59780  41502.000000  0    -879295.472   -170161.467  -6836868.597
10 0 59780  41622.000000  0    -983972.090    740460.126  -6784404.813
10 0 59780  41742.000000  0   -1055771.395   1639805.821  -6613632.730
10 0 59780  41862.000000  0   -1093782.415   2511710.360  -6327488.276
10 0 59780  41982.000000  0   -1097953.400   3340453.412  -5930897.830
10 0 59780  42102.000000  0   -1069083.826   4111040.487  -5430702.890
10 0 59780  42222.000000  0   -1008797.345   4809474.159  -4835553.028
10 0 59780  42342.000000  0    -919496.781   5423013.000  -4155767.958
99
